QIANFAN-33              
1 61566U 24185Q   26196.12241464  .00000175  00000+0  11608-3 0  9993
2 61566  88.9793  54.9085 0008666  31.2759 328.8932 13.96719633 99083
QIANFAN-34              
1 61567U 24185R   26196.13542856  .00000105  00000+0  59239-4 0  9990
2 61567  88.9771  54.1869 0006801  30.5388 329.6187 14.02483842 99406
QIANFAN-35              
1 61568U 24185S   26196.16760897  .00000337  00000+0  12926-3 0  9999
2 61568  88.9798  51.7126 0004573 318.7570  41.3278 14.28297869100786
QIANFAN-36              
1 61569U 24185T   26196.16318241  .00000103  00000+0  13057-3 0  9999
2 61569  88.9772  58.7019 0007605 127.2624 232.9224 13.55640171 96970
QIANFAN-37              
1 62238U 24232B   26196.18337757  .00000029  00000+0  26061-4 0  9998
2 62238  89.0067  19.7718 0001994 108.3121 251.8247 13.51011255128122
QIANFAN-38              
1 62239U 24232C   26196.13401128  .00000041  00000+0  44918-4 0  9993
2 62239  89.0073  19.7070 0012692 300.0750  59.9142 13.51007880128172
QIANFAN-39              
1 62240U 24232D   26196.15744882  .00000076  00000+0  25643-4 0  9996
2 62240  89.0061  12.8797 0018532  95.8055 264.5252 14.25532335131931
QIANFAN-40              
1 62241U 24232E   26196.16688402  .00000040  00000+0  43379-4 0  9990
2 62241  89.0101  19.3480 0011898 309.3901  50.6196 13.51009445128542
QIANFAN-41              
1 62242U 24232F   26196.17510200  .00000043  00000+0  48539-4 0  9998
2 62242  89.0071  19.6505 0012034 295.5627  64.4279 13.51012308128204
QIANFAN-42              
1 62243U 24232G   26196.15161133  .00000076  00000+0  26501-4 0  9995
2 62243  89.0059  12.9593 0017336 101.6749 258.6390 14.24620867131892
QIANFAN-43              
1 62244U 24232H   26196.17098231  .00000043  00000+0  48042-4 0  9994
2 62244  89.0076  19.7257 0013665 301.0718  58.9092 13.51011737 96818
QIANFAN-44              
1 62245U 24232J   26196.15858499  .00000037  00000+0  38393-4 0  9994
2 62245  89.0074  19.5341 0011827 298.3041  61.6916 13.51013595128281
QIANFAN-45              
1 62246U 24232K   26196.19982432  .00000031  00000+0  29299-4 0  9993
2 62246  89.0078  19.6842 0012483 297.5494  62.4388 13.51011001128210
QIANFAN-46              
1 62247U 24232L   26196.15041601  .00000022  00000+0  16028-4 0  9990
2 62247  89.0073  19.7494 0012644 304.0178  55.9771 13.51011670128161
QIANFAN-47              
1 62248U 24232M   26196.15454596  .00000032  00000+0  31597-4 0  9991
2 62248  89.0069  19.6733 0013041 302.8647  57.1248 13.51011155128195
QIANFAN-48              
1 62249U 24232N   26196.19142953  .00000031  00000+0  30227-4 0  9995
2 62249  89.0073  19.6798 0015350 305.0064  54.9646 13.51015778128209
