{"fetched_at":"2026-07-15T17:46:49.740Z","source":"https://celestrak.org/NORAD/elements/gp.php?GROUP=qianfan&FORMAT=JSON","constellation":"qianfan","records":[{"OBJECT_NAME":"QIANFAN-33","OBJECT_ID":"2024-185Q","EPOCH":"2026-07-15T02:56:16.624896","CLASSIFICATION_TYPE":"U","MEAN_MOTION":13.96719633,"ECCENTRICITY":0.0008666,"INCLINATION":88.9793,"RA_OF_ASC_NODE":54.9085,"ARG_OF_PERICENTER":31.2759,"MEAN_ANOMALY":328.8932,"EPHEMERIS_TYPE":0,"NORAD_CAT_ID":61566,"ELEMENT_SET_NO":999,"REV_AT_EPOCH":9908,"BSTAR":0.00011608,"MEAN_MOTION_DOT":0.00000175,"MEAN_MOTION_DDOT":0},{"OBJECT_NAME":"QIANFAN-34","OBJECT_ID":"2024-185R","EPOCH":"2026-07-15T03:15:01.027584","CLASSIFICATION_TYPE":"U","MEAN_MOTION":14.02483842,"ECCENTRICITY":0.0006801,"INCLINATION":88.9771,"RA_OF_ASC_NODE":54.1869,"ARG_OF_PERICENTER":30.5388,"MEAN_ANOMALY":329.6187,"EPHEMERIS_TYPE":0,"NORAD_CAT_ID":61567,"ELEMENT_SET_NO":999,"REV_AT_EPOCH":9940,"BSTAR":0.000059239,"MEAN_MOTION_DOT":0.00000105,"MEAN_MOTION_DDOT":0},{"OBJECT_NAME":"QIANFAN-35","OBJECT_ID":"2024-185S","EPOCH":"2026-07-15T04:01:21.415008","CLASSIFICATION_TYPE":"U","MEAN_MOTION":14.28297869,"ECCENTRICITY":0.0004573,"INCLINATION":88.9798,"RA_OF_ASC_NODE":51.7126,"ARG_OF_PERICENTER":318.757,"MEAN_ANOMALY":41.3278,"EPHEMERIS_TYPE":0,"NORAD_CAT_ID":61568,"ELEMENT_SET_NO":999,"REV_AT_EPOCH":10078,"BSTAR":0.00012926,"MEAN_MOTION_DOT":0.00000337,"MEAN_MOTION_DDOT":0},{"OBJECT_NAME":"QIANFAN-36","OBJECT_ID":"2024-185T","EPOCH":"2026-07-15T03:54:58.960224","CLASSIFICATION_TYPE":"U","MEAN_MOTION":13.55640171,"ECCENTRICITY":0.0007605,"INCLINATION":88.9772,"RA_OF_ASC_NODE":58.7019,"ARG_OF_PERICENTER":127.2624,"MEAN_ANOMALY":232.9224,"EPHEMERIS_TYPE":0,"NORAD_CAT_ID":61569,"ELEMENT_SET_NO":999,"REV_AT_EPOCH":9697,"BSTAR":0.00013057,"MEAN_MOTION_DOT":0.00000103,"MEAN_MOTION_DDOT":0},{"OBJECT_NAME":"QIANFAN-37","OBJECT_ID":"2024-232B","EPOCH":"2026-07-15T04:24:03.822048","CLASSIFICATION_TYPE":"U","MEAN_MOTION":13.51011255,"ECCENTRICITY":0.0001994,"INCLINATION":89.0067,"RA_OF_ASC_NODE":19.7718,"ARG_OF_PERICENTER":108.3121,"MEAN_ANOMALY":251.8247,"EPHEMERIS_TYPE":0,"NORAD_CAT_ID":62238,"ELEMENT_SET_NO":999,"REV_AT_EPOCH":12812,"BSTAR":0.000026061,"MEAN_MOTION_DOT":2.9e-7,"MEAN_MOTION_DDOT":0},{"OBJECT_NAME":"QIANFAN-38","OBJECT_ID":"2024-232C","EPOCH":"2026-07-15T03:12:58.574592","CLASSIFICATION_TYPE":"U","MEAN_MOTION":13.5100788,"ECCENTRICITY":0.0012692,"INCLINATION":89.0073,"RA_OF_ASC_NODE":19.707,"ARG_OF_PERICENTER":300.075,"MEAN_ANOMALY":59.9142,"EPHEMERIS_TYPE":0,"NORAD_CAT_ID":62239,"ELEMENT_SET_NO":999,"REV_AT_EPOCH":12817,"BSTAR":0.000044918,"MEAN_MOTION_DOT":4.1e-7,"MEAN_MOTION_DDOT":0},{"OBJECT_NAME":"QIANFAN-39","OBJECT_ID":"2024-232D","EPOCH":"2026-07-15T03:46:43.578048","CLASSIFICATION_TYPE":"U","MEAN_MOTION":14.25532335,"ECCENTRICITY":0.0018532,"INCLINATION":89.0061,"RA_OF_ASC_NODE":12.8797,"ARG_OF_PERICENTER":95.8055,"MEAN_ANOMALY":264.5252,"EPHEMERIS_TYPE":0,"NORAD_CAT_ID":62240,"ELEMENT_SET_NO":999,"REV_AT_EPOCH":13193,"BSTAR":0.000025643,"MEAN_MOTION_DOT":7.6e-7,"MEAN_MOTION_DDOT":0},{"OBJECT_NAME":"QIANFAN-40","OBJECT_ID":"2024-232E","EPOCH":"2026-07-15T04:00:18.779328","CLASSIFICATION_TYPE":"U","MEAN_MOTION":13.51009445,"ECCENTRICITY":0.0011898,"INCLINATION":89.0101,"RA_OF_ASC_NODE":19.348,"ARG_OF_PERICENTER":309.3901,"MEAN_ANOMALY":50.6196,"EPHEMERIS_TYPE":0,"NORAD_CAT_ID":62241,"ELEMENT_SET_NO":999,"REV_AT_EPOCH":12854,"BSTAR":0.000043379,"MEAN_MOTION_DOT":4e-7,"MEAN_MOTION_DDOT":0},{"OBJECT_NAME":"QIANFAN-41","OBJECT_ID":"2024-232F","EPOCH":"2026-07-15T04:12:08.812800","CLASSIFICATION_TYPE":"U","MEAN_MOTION":13.51012308,"ECCENTRICITY":0.0012034,"INCLINATION":89.0071,"RA_OF_ASC_NODE":19.6505,"ARG_OF_PERICENTER":295.5627,"MEAN_ANOMALY":64.4279,"EPHEMERIS_TYPE":0,"NORAD_CAT_ID":62242,"ELEMENT_SET_NO":999,"REV_AT_EPOCH":12820,"BSTAR":0.000048539,"MEAN_MOTION_DOT":4.3e-7,"MEAN_MOTION_DDOT":0},{"OBJECT_NAME":"QIANFAN-42","OBJECT_ID":"2024-232G","EPOCH":"2026-07-15T03:38:19.218912","CLASSIFICATION_TYPE":"U","MEAN_MOTION":14.24620867,"ECCENTRICITY":0.0017336,"INCLINATION":89.0059,"RA_OF_ASC_NODE":12.9593,"ARG_OF_PERICENTER":101.6749,"MEAN_ANOMALY":258.639,"EPHEMERIS_TYPE":0,"NORAD_CAT_ID":62243,"ELEMENT_SET_NO":999,"REV_AT_EPOCH":13189,"BSTAR":0.000026501,"MEAN_MOTION_DOT":7.6e-7,"MEAN_MOTION_DDOT":0},{"OBJECT_NAME":"QIANFAN-43","OBJECT_ID":"2024-232H","EPOCH":"2026-07-15T04:06:12.871584","CLASSIFICATION_TYPE":"U","MEAN_MOTION":13.51011737,"ECCENTRICITY":0.0013665,"INCLINATION":89.0076,"RA_OF_ASC_NODE":19.7257,"ARG_OF_PERICENTER":301.0718,"MEAN_ANOMALY":58.9092,"EPHEMERIS_TYPE":0,"NORAD_CAT_ID":62244,"ELEMENT_SET_NO":999,"REV_AT_EPOCH":9681,"BSTAR":0.000048042,"MEAN_MOTION_DOT":4.3e-7,"MEAN_MOTION_DDOT":0},{"OBJECT_NAME":"QIANFAN-44","OBJECT_ID":"2024-232J","EPOCH":"2026-07-15T03:48:21.743136","CLASSIFICATION_TYPE":"U","MEAN_MOTION":13.51013595,"ECCENTRICITY":0.0011827,"INCLINATION":89.0074,"RA_OF_ASC_NODE":19.5341,"ARG_OF_PERICENTER":298.3041,"MEAN_ANOMALY":61.6916,"EPHEMERIS_TYPE":0,"NORAD_CAT_ID":62245,"ELEMENT_SET_NO":999,"REV_AT_EPOCH":12828,"BSTAR":0.000038393,"MEAN_MOTION_DOT":3.7e-7,"MEAN_MOTION_DDOT":0},{"OBJECT_NAME":"QIANFAN-45","OBJECT_ID":"2024-232K","EPOCH":"2026-07-15T04:47:44.821248","CLASSIFICATION_TYPE":"U","MEAN_MOTION":13.51011001,"ECCENTRICITY":0.0012483,"INCLINATION":89.0078,"RA_OF_ASC_NODE":19.6842,"ARG_OF_PERICENTER":297.5494,"MEAN_ANOMALY":62.4388,"EPHEMERIS_TYPE":0,"NORAD_CAT_ID":62246,"ELEMENT_SET_NO":999,"REV_AT_EPOCH":12821,"BSTAR":0.000029299,"MEAN_MOTION_DOT":3.1e-7,"MEAN_MOTION_DDOT":0},{"OBJECT_NAME":"QIANFAN-46","OBJECT_ID":"2024-232L","EPOCH":"2026-07-15T03:36:35.943264","CLASSIFICATION_TYPE":"U","MEAN_MOTION":13.5101167,"ECCENTRICITY":0.0012644,"INCLINATION":89.0073,"RA_OF_ASC_NODE":19.7494,"ARG_OF_PERICENTER":304.0178,"MEAN_ANOMALY":55.9771,"EPHEMERIS_TYPE":0,"NORAD_CAT_ID":62247,"ELEMENT_SET_NO":999,"REV_AT_EPOCH":12816,"BSTAR":0.000016028,"MEAN_MOTION_DOT":2.2e-7,"MEAN_MOTION_DDOT":0},{"OBJECT_NAME":"QIANFAN-47","OBJECT_ID":"2024-232M","EPOCH":"2026-07-15T03:42:32.770944","CLASSIFICATION_TYPE":"U","MEAN_MOTION":13.51011155,"ECCENTRICITY":0.0013041,"INCLINATION":89.0069,"RA_OF_ASC_NODE":19.6733,"ARG_OF_PERICENTER":302.8647,"MEAN_ANOMALY":57.1248,"EPHEMERIS_TYPE":0,"NORAD_CAT_ID":62248,"ELEMENT_SET_NO":999,"REV_AT_EPOCH":12819,"BSTAR":0.000031597,"MEAN_MOTION_DOT":3.2e-7,"MEAN_MOTION_DDOT":0},{"OBJECT_NAME":"QIANFAN-48","OBJECT_ID":"2024-232N","EPOCH":"2026-07-15T04:35:39.511392","CLASSIFICATION_TYPE":"U","MEAN_MOTION":13.51015778,"ECCENTRICITY":0.001535,"INCLINATION":89.0073,"RA_OF_ASC_NODE":19.6798,"ARG_OF_PERICENTER":305.0064,"MEAN_ANOMALY":54.9646,"EPHEMERIS_TYPE":0,"NORAD_CAT_ID":62249,"ELEMENT_SET_NO":999,"REV_AT_EPOCH":12820,"BSTAR":0.000030227,"MEAN_MOTION_DOT":3.1e-7,"MEAN_MOTION_DDOT":0}]}
